[{"OBJECT_NAME":"STARLINK-3394","OBJECT_ID":"2022-005Q","EPOCH":"2026-03-09T21:11:35.197728","MEAN_MOTION":15.08841259,"ECCENTRICITY":0.00013467,"INCLINATION":53.2169,"RA_OF_ASC_NODE":288.2551,"ARG_OF_PERICENTER":89.718,"MEAN_ANOMALY":270.3966,"EPHEMERIS_TYPE":0,"CLASSIFICATION_TYPE":"U","NORAD_CAT_ID":51118,"ELEMENT_SET_NO":999,"REV_AT_EPOCH":22890,"BSTAR":3.2003302e-5,"MEAN_MOTION_DOT":2.21e-6,"MEAN_MOTION_DDOT":0},{"OBJECT_NAME":"CZ-2C DEB","OBJECT_ID":"2026-009C","EPOCH":"2026-03-09T19:20:16.840608","MEAN_MOTION":15.15876918,"ECCENTRICITY":0.01015815,"INCLINATION":97.2202,"RA_OF_ASC_NODE":140.8028,"ARG_OF_PERICENTER":36.3959,"MEAN_ANOMALY":324.4125,"EPHEMERIS_TYPE":0,"CLASSIFICATION_TYPE":"U","NORAD_CAT_ID":67586,"ELEMENT_SET_NO":999,"REV_AT_EPOCH":810,"BSTAR":0.0025681251,"MEAN_MOTION_DOT":0.0005635,"MEAN_MOTION_DDOT":0}]
